[{"OBJECT_NAME":"STARLINK-6357","OBJECT_ID":"2023-078S","EPOCH":"2026-03-09T23:18:07.793856","MEAN_MOTION":14.98327229,"ECCENTRICITY":0.00028075,"INCLINATION":70.0004,"RA_OF_ASC_NODE":323.8294,"ARG_OF_PERICENTER":259.551,"MEAN_ANOMALY":100.5333,"EPHEMERIS_TYPE":0,"CLASSIFICATION_TYPE":"U","NORAD_CAT_ID":56783,"ELEMENT_SET_NO":999,"REV_AT_EPOCH":15321,"BSTAR":-4.3098428e-5,"MEAN_MOTION_DOT":-6.07e-6,"MEAN_MOTION_DDOT":0},{"OBJECT_NAME":"SKYKRAFT-4E","OBJECT_ID":"2025-154L","EPOCH":"2026-03-09T17:52:42.156768","MEAN_MOTION":14.96573469,"ECCENTRICITY":0.00042366,"INCLINATION":97.6795,"RA_OF_ASC_NODE":135.3397,"ARG_OF_PERICENTER":218.3459,"MEAN_ANOMALY":141.7462,"EPHEMERIS_TYPE":0,"CLASSIFICATION_TYPE":"U","NORAD_CAT_ID":65227,"ELEMENT_SET_NO":999,"REV_AT_EPOCH":3245,"BSTAR":0.00070463663,"MEAN_MOTION_DOT":7.969e-5,"MEAN_MOTION_DDOT":0}]
